NORAD_CAT_ID,OBJECT_NAME,OBJECT_TYPE,EPOCH,MEAN_MOTION,ECCENTRICITY,INCLINATION,RA_OF_ASC_NODE,ARG_OF_PERICENTER,MEAN_ANOMALY,BSTAR,MEAN_MOTION_DOT,MEAN_MOTION_DDOT,TLE_LINE0,TLE_LINE1,TLE_LINE2,SEMIMAJOR_AXIS,PERIOD,APOGEE,PERIGEE,DECAYED
52476.0,STARLINK-3835,PAYLOAD,2024-02-18 15:23:56,15.08837914,0.0001283,53.2174,176.4594,82.6687,277.4451,0.00011896,1.606e-05,0.0,0 STARLINK-3835,1 52476U 22049AB  24049.64162095  .00001606  00000-0  11896-3 0  9994,2 52476  53.2174 176.4594 0001283  82.6687 277.4451 15.08837914100394,6917.887,95.438,540.639,538.864,0.0
52476.0,STARLINK-3835,PAYLOAD,2024-02-19 12:03:57,15.08832918,0.0001338,53.2178,172.595,83.3655,276.749,7.521e-05,9.09e-06,0.0,0 STARLINK-3835,1 52476U 22049AB  24050.50274923  .00000909  00000-0  75210-4 0  9991,2 52476  53.2178 172.5950 0001338  83.3655 276.7490 15.08832918 99442,6917.902,95.438,540.693,538.841,0.0
52476.0,STARLINK-3835,PAYLOAD,2024-02-19 15:14:43,15.08834941,0.000131,53.2175,172.0006,86.2118,273.9024,9.3611e-05,1.202e-05,0.0,0 STARLINK-3835,1 52476U 22049AB  24050.63522759  .00001202  00000-0  93611-4 0  9990,2 52476  53.2175 172.0006 0001310  86.2118 273.9024 15.08834941100546,6917.896,95.438,540.667,538.855,0.0
52476.0,STARLINK-3835,PAYLOAD,2024-02-20 15:05:30,15.08843153,0.0001491,53.2171,167.5406,95.0047,265.1115,1.4416e-05,-5.9e-07,0.0,0 STARLINK-3835,1 52476U 22049AB  24051.62882776 -.00000059  00000-0  14416-4 0  9994,2 52476  53.2171 167.5406 0001491  95.0047 265.1115 15.08843153100699,6917.871,95.437,540.767,538.704,0.0
52476.0,STARLINK-3835,PAYLOAD,2024-02-20 18:16:17,15.08840322,0.0001352,53.2174,166.9432,84.2329,275.8817,5.8685e-05,6.46e-06,0.0,0 STARLINK-3835,1 52476U 22049AB  24051.76130847  .00000646  00000-0  58685-4 0  9991,2 52476  53.2174 166.9432 0001352  84.2329 275.8817 15.08840322 99636,6917.879,95.438,540.68,538.809,0.0
52476.0,STARLINK-3835,PAYLOAD,2024-02-21 11:45:31,15.08825186,6.97e-05,53.2171,163.6659,85.7323,274.3748,0.00030709,4.601e-05,0.0,0 STARLINK-3835,1 52476U 22049AB  24052.48994905  .00004601  00000-0  30709-3 0  9995,2 52476  53.2171 163.6659 0000697  85.7323 274.3748 15.08825186 99749,6917.926,95.438,540.273,539.308,0.0
52476.0,STARLINK-3835,PAYLOAD,2024-02-21 14:56:17,15.0884729,0.0001741,53.2182,163.0768,64.8212,295.296,6.1753e-05,6.95e-06,0.0,0 STARLINK-3835,1 52476U 22049AB  24052.62242340  .00000695  00000-0  61753-4 0  9993,2 52476  53.2182 163.0768 0001741  64.8212 295.2960 15.08847290100844,6917.858,95.437,540.928,538.519,0.0
52476.0,STARLINK-3835,PAYLOAD,2024-02-22 11:36:18,15.08840585,0.0001398,53.2179,159.2121,99.3617,260.7533,3.3164e-06,-2.35e-06,0.0,0 STARLINK-3835,1 52476U 22049AB  24053.48354869 -.00000235  00000-0  33164-5 0  9995,2 52476  53.2179 159.2121 0001398  99.3617 260.7533 15.08840585 99895,6917.879,95.438,540.711,538.776,0.0
52476.0,STARLINK-3835,PAYLOAD,2024-02-22 14:47:04,15.08844324,0.0001413,53.2177,158.6176,90.0314,270.084,3.5841e-05,2.83e-06,0.0,0 STARLINK-3835,1 52476U 22049AB  24053.61602530  .00000283  00000-0  35841-4 0  9996,2 52476  53.2177 158.6176 0001413  90.0314 270.0840 15.08844324100990,6917.867,95.437,540.71,538.755,0.0
52476.0,STARLINK-3835,PAYLOAD,2024-02-23 11:27:05,15.08851205,0.0001399,53.2175,154.7528,98.2821,261.833,-3.9514e-05,-9.17e-06,0.0,0 STARLINK-3835,1 52476U 22049AB  24054.47714161 -.00000917  00000-0 -39514-4 0  9992,2 52476  53.2175 154.7528 0001399  98.2821 261.8330 15.08851205100046,6917.846,95.437,540.679,538.743,0.0
52476.0,STARLINK-3835,PAYLOAD,2024-02-23 13:02:27,15.08852698,0.0001425,53.2173,154.4555,85.2249,274.8906,-3.9988e-06,-3.52e-06,0.0,0 STARLINK-3835,1 52476U 22049AB  24054.54337936 -.00000352  00000-0 -39988-5 0  9990,2 52476  53.2173 154.4555 0001425  85.2249 274.8906 15.08852698101132,6917.842,95.437,540.692,538.721,0.0
52476.0,STARLINK-3835,PAYLOAD,2024-02-24 12:53:15,15.08838959,0.0001589,53.2185,149.9932,99.1865,260.9307,-9.178e-06,-4.34e-06,0.0,0 STARLINK-3835,1 52476U 22049AB  24055.53698812 -.00000434  00000-0 -91780-5 0  9992,2 52476  53.2185 149.9932 0001589  99.1865 260.9307 15.08838959100204,6917.884,95.438,540.848,538.649,0.0
52476.0,STARLINK-3835,PAYLOAD,2024-02-24 16:04:01,15.08841428,0.0001744,53.2196,149.3975,101.9178,258.2009,-4.2857e-06,-3.56e-06,0.0,0 STARLINK-3835,1 52476U 22049AB  24055.66946696 -.00000356  00000-0 -42857-5 0  9996,2 52476  53.2196 149.3975 0001744 101.9178 258.2009 15.08841428101305,6917.876,95.437,540.948,538.535,0.0
52476.0,STARLINK-3835,PAYLOAD,2024-02-25 12:44:02,15.08849398,0.0001352,53.2165,145.531,92.5398,267.5749,3.3287e-05,2.42e-06,0.0,0 STARLINK-3835,1 52476U 22049AB  24056.53058050  .00000242  00000-0  33287-4 0  9999,2 52476  53.2165 145.5310 0001352  92.5398 267.5749 15.08849398100358,6917.852,95.437,540.652,538.781,0.0
52476.0,STARLINK-3835,PAYLOAD,2024-02-26 10:59:27,15.08826119,0.0001411,53.2174,141.3703,93.82,266.2953,2.9294e-05,1.78e-06,0.0,0 STARLINK-3835,1 52476U 22049AB  24057.45795966  .00000178  00000-0  29294-4 0  9996,2 52476  53.2174 141.3703 0001411  93.8200 266.2953 15.08826119100494,6917.923,95.438,540.764,538.812,0.0
52476.0,STARLINK-3835,PAYLOAD,2024-02-27 04:28:42,15.08833607,0.0001435,53.2172,138.0973,92.0875,268.0281,6.5658e-05,7.57e-06,0.0,0 STARLINK-3835,1 52476U 22049AB  24058.18659794  .00000757  00000-0  65658-4 0  9992,2 52476  53.2172 138.0973 0001435  92.0875 268.0281 15.08833607100606,6917.9,95.438,540.758,538.772,0.0
52476.0,STARLINK-3835,PAYLOAD,2024-02-27 12:25:37,15.08844344,0.0001516,53.2179,136.615,105.3766,254.7394,8.647e-05,1.089e-05,0.0,0 STARLINK-3835,1 52476U 22049AB  24058.51778998  .00001089  00000-0  86470-4 0  9991,2 52476  53.2179 136.6150 0001516 105.3766 254.7394 15.08844344100653,6917.867,95.437,540.781,538.683,0.0
52476.0,STARLINK-3835,PAYLOAD,2024-02-27 21:57:56,15.08842682,0.0001399,53.2171,134.8312,99.3448,260.7702,9.2884e-06,-1.4e-06,0.0,0 STARLINK-3835,1 52476U 22049AB  24058.91523304 -.00000140  00000-0  92884-5 0  9999,2 52476  53.2171 134.8312 0001399  99.3448 260.7702 15.08842682101792,6917.872,95.437,540.705,538.769,0.0
52476.0,STARLINK-3835,PAYLOAD,2024-02-28 12:16:25,15.08829293,0.0001632,53.2185,132.1552,97.8003,262.3175,7.3162e-05,8.76e-06,0.0,0 STARLINK-3835,1 52476U 22049AB  24059.51140414  .00000876  00000-0  73162-4 0  9995,2 52476  53.2185 132.1552 0001632  97.8003 262.3175 15.08829293100800,6917.913,95.438,540.907,538.649,0.0
52476.0,STARLINK-3835,PAYLOAD,2024-02-29 04:10:16,15.0884715,0.0001483,53.2173,129.1771,82.1353,277.9807,-1.5741e-05,-5.39e-06,0.0,0 STARLINK-3835,1 52476U 22049AB  24060.17379763 -.00000539  00000-0 -15741-4 0  9997,2 52476  53.2173 129.1771 0001483  82.1353 277.9807 15.08847150100902,6917.859,95.437,540.749,538.698,0.0
52476.0,STARLINK-3835,PAYLOAD,2024-02-29 12:07:11,15.08852052,0.0001435,53.217,127.692,88.2231,271.8925,6.7784e-05,7.91e-06,0.0,0 STARLINK-3835,1 52476U 22049AB  24060.50498988  .00000791  00000-0  67784-4 0  9997,2 52476  53.2170 127.6920 0001435  88.2231 271.8925 15.08852052102034,6917.844,95.437,540.701,538.716,0.0
52476.0,STARLINK-3835,PAYLOAD,2024-02-29 21:39:30,15.08843166,0.0001367,53.2172,125.9078,82.5509,277.5638,6.3816e-05,7.28e-06,0.0,0 STARLINK-3835,1 52476U 22049AB  24060.90243415  .00000728  00000-0  63816-4 0  9996,2 52476  53.2172 125.9078 0001367  82.5509 277.5638 15.08843166102096,6917.871,95.437,540.681,538.79,0.0
52476.0,STARLINK-3835,PAYLOAD,2024-03-01 04:01:03,15.08836214,0.0001567,53.2178,124.7173,85.5468,274.5703,9.2861e-05,1.19e-05,0.0,0 STARLINK-3835,1 52476U 22049AB  24061.16739863  .00001190  00000-0  92861-4 0  9998,2 52476  53.2178 124.7173 0001567  85.5468 274.5703 15.08836214101055,6917.892,95.438,540.841,538.673,0.0
52476.0,STARLINK-3835,PAYLOAD,2024-03-01 13:33:21,15.08845915,0.0001432,53.2172,122.9319,90.2922,269.8234,9.6506e-05,1.249e-05,0.0,0 STARLINK-3835,1 52476U 22049AB  24061.56483174  .00001249  00000-0  96506-4 0  9998,2 52476  53.2172 122.9319 0001432  90.2922 269.8234 15.08845915102190,6917.862,95.437,540.718,538.737,0.0
52476.0,STARLINK-3835,PAYLOAD,2024-03-02 10:13:19,15.08877628,0.0001338,53.2173,119.0665,99.3647,260.7496,0.00022235,3.256e-05,0.0,0 STARLINK-3835,1 52476U 22049AB  24062.42592303  .00003256  00000-0  22235-3 0  9996,2 52476  53.2173 119.0665 0001338  99.3647 260.7496 15.08877628101242,6917.765,95.435,540.556,538.705,0.0
52476.0,STARLINK-3835,PAYLOAD,2024-03-03 03:42:36,15.08840965,0.0001435,53.2165,115.7951,102.7755,257.3397,4.7922e-05,4.75e-06,0.0,0 STARLINK-3835,1 52476U 22049AB  24063.15458641  .00000475  00000-0  47922-4 0  9994,2 52476  53.2165 115.7951 0001435 102.7755 257.3397 15.08840965101359,6917.877,95.437,540.735,538.75,0.0
52476.0,STARLINK-3835,PAYLOAD,2024-03-03 10:04:09,15.08831882,0.0001254,53.2152,114.6067,95.3984,264.7152,-2.7474e-05,-7.25e-06,0.0,0 STARLINK-3835,1 52476U 22049AB  24063.41955520 -.00000725  00000-0 -27474-4 0  9991,2 52476  53.2152 114.6067 0001254  95.3984 264.7152 15.08831882101394,6917.905,95.438,540.638,538.903,0.0
52476.0,STARLINK-3835,PAYLOAD,2024-03-04 03:33:23,15.08853488,0.0001925,53.2166,111.3333,135.3566,224.7582,-0.00021048,-3.638e-05,0.0,0 STARLINK-3835,1 52476U 22049AB  24064.14818681 -.00003638  00000-0 -21048-3 0  9994,2 52476  53.2166 111.3333 0001925 135.3566 224.7582 15.08853488101507,6917.839,95.437,541.036,538.372,0.0
52476.0,STARLINK-3835,PAYLOAD,2024-03-04 09:54:54,15.08867133,0.0001513,53.2173,110.1463,110.3754,249.7401,-2.7082e-05,-7.19e-06,0.0,0 STARLINK-3835,1 52476U 22049AB  24064.41313111 -.00000719  00000-0 -27082-4 0  9994,2 52476  53.2173 110.1463 0001513 110.3754 249.7401 15.08867133101544,6917.797,95.436,540.709,538.616,0.0
52476.0,STARLINK-3835,PAYLOAD,2024-03-04 19:27:14,15.08851355,0.0001653,53.2173,108.3622,73.6259,286.4914,-0.00013159,-2.382e-05,0.0,0 STARLINK-3835,1 52476U 22049AB  24064.81058193 -.00002382  00000-0 -13159-3 0  9991,2 52476  53.2173 108.3622 0001653  73.6259 286.4914 15.08851355101609,6917.846,95.437,540.854,538.567,0.0
